{"type": "FeatureCollection", "features": [{"type": "Feature", "properties": {"pgc_prefix": "807803", "municipality": "Cabucgayan", "barangay_count": 13}, "geometry": {"type": "Polygon", "coordinates": [[[124.57179759600001, 11.472348211000053], [124.56785227000013, 11.472881121000055], [124.56629501900012, 11.473345553000058], [124.56595236200009, 11.473171027000035], [124.56588507100003, 11.473447188000021], [124.56411920700008, 11.473910512000028], [124.56242500600001, 11.47364541400003], [124.56160934400008, 11.473832376000075], [124.55598019000003, 11.477034604000036], [124.55624656700003, 11.477383352000057], [124.55521209600012, 11.477701801000022], [124.555157236, 11.47831660500003], [124.55342138900006, 11.478176045000053], [124.55212784300012, 11.477618331000029], [124.54993206800007, 11.474909937000064], [124.54990606800006, 11.474372175000044], [124.55054109200013, 11.474125423000032], [124.55029926300007, 11.473282289000053], [124.54954171800013, 11.47263664300004], [124.54782834600007, 11.471999065000032], [124.5459107710001, 11.472788513000067], [124.54565812800001, 11.473320846000036], [124.54691146900008, 11.474443760000039], [124.54695854200007, 11.475262792000024], [124.5475813700001, 11.475772189000054], [124.547756004, 11.476806787000045], [124.54642250100005, 11.477507721000052], [124.54602525600002, 11.478148804000057], [124.54557478200002, 11.478332440000031], [124.54534308200004, 11.478028263000056], [124.54491862700002, 11.478388139000062], [124.54499516400006, 11.476949671000055], [124.54428976200006, 11.477173252000059], [124.5417363690001, 11.476543351000034], [124.54104932000007, 11.475511912000059], [124.53970268000013, 11.474573427000053], [124.53660555100011, 11.473470204000021], [124.53642998500004, 11.473737857000058], [124.53504809000003, 11.473804785000025], [124.53507410300006, 11.474101113000074], [124.53402330600012, 11.47462843300002], [124.5320644190001, 11.474603023000045], [124.5305416760001, 11.475474443000051], [124.53010947300004, 11.476357779000068], [124.52844230300003, 11.47643471300006], [124.52737428000012, 11.476952535000065], [124.52597910000009, 11.476441346000055], [124.52464848700004, 11.476965160000079], [124.52364587500006, 11.476497351000036], [124.52218736300006, 11.476714785000071], [124.52163804600004, 11.47641739300008], [124.52170307300003, 11.476052561000072], [124.52104742000006, 11.476281707000052], [124.52072328700002, 11.475400611000055], [124.52043624200007, 11.475710503000073], [124.5198850270001, 11.475642049000044], [124.51957330300003, 11.47551898100005], [124.51970336600004, 11.475169533000042], [124.5170987690001, 11.474371258000074], [124.51680336200002, 11.475243085000042], [124.51752033700008, 11.475584351000068], [124.51771705200008, 11.477014682000059], [124.51919074700005, 11.479748465000057], [124.51901937000004, 11.480934817000048], [124.52004622900006, 11.481422401000033], [124.5196116300001, 11.482477222000057], [124.51984030000007, 11.483279121000066], [124.51922783100007, 11.483837199000048], [124.52007945200012, 11.484462226000058], [124.51971290800009, 11.485507292000024], [124.51988364200008, 11.486242751000075], [124.52094355700001, 11.486879163000028], [124.52098865900007, 11.487899867000063], [124.52235446600002, 11.489090257000042], [124.52087516300003, 11.491179864000058], [124.52064426500009, 11.49264872900005], [124.51952634400004, 11.493542687000058], [124.5189315130001, 11.494539286000075], [124.51901787700001, 11.494863223000038], [124.51961204500002, 11.495077098000024], [124.5191952790001, 11.496153255000026], [124.51984024100011, 11.496725716000071], [124.52053007600011, 11.499541332000035], [124.51976883500004, 11.50880224700006], [124.51966950300005, 11.541355589000032], [124.54301165500011, 11.535922800000035], [124.56030352800008, 11.531221439000031], [124.58199143100002, 11.526379588000053], [124.5978297700001, 11.52372270300003], [124.6012241740001, 11.52387126000002], [124.61563456600004, 11.525610902000038], [124.61633355100003, 11.526087601000029], [124.61754235700005, 11.525543493000043], [124.61701444300003, 11.521065544000065], [124.61579391300006, 11.516450645000079], [124.616037945, 11.51167231900007], [124.61386974500012, 11.507631489000063], [124.61208384200008, 11.50514882300007], [124.61184448400002, 11.503179326000065], [124.60963389000004, 11.501030491000051], [124.6096053340001, 11.499419158000018], [124.60797608100007, 11.497596345000032], [124.60651071500001, 11.494537470000067], [124.60634965800013, 11.49351388400004], [124.60713793900003, 11.492099161000054], [124.606117358, 11.490024082000046], [124.60596963000012, 11.488665317000029], [124.60323351900001, 11.488932644000043], [124.602935396, 11.49036968400003], [124.60338348500011, 11.491098634000027], [124.601970531, 11.491647716000047], [124.60096563900004, 11.490590769000049], [124.60037512800012, 11.489352019000021], [124.59909254600008, 11.488367631000074], [124.597385, 11.487606529000061], [124.59676875700006, 11.486817234000057], [124.59541126900002, 11.486582033000047], [124.5944366760001, 11.485016847000054], [124.59133685400003, 11.481469863000031], [124.59087764900006, 11.480150308000079], [124.5894985120001, 11.47883402200006], [124.58884377900007, 11.479068720000043], [124.58797428100002, 11.478830931000058], [124.58727472800001, 11.478194331000052], [124.58698505700012, 11.477383307000023], [124.58611310000003, 11.477249568000047], [124.58602272800009, 11.476398905000055], [124.58547234600007, 11.47569509700003], [124.58479445300007, 11.47581020800004], [124.58429442300007, 11.475326754000033], [124.58361282900012, 11.47548218500003], [124.58355371500011, 11.475036547000059], [124.58266838000009, 11.474806775000049], [124.58262289000004, 11.47428893500006], [124.5817231970001, 11.474384323000043], [124.58128561500007, 11.473787333000073], [124.58057699400003, 11.47391400400005], [124.57934031800005, 11.473560691000044], [124.57876259000012, 11.472866445000022], [124.57463238900004, 11.472295719000044], [124.57451159900006, 11.471268784000076], [124.57435211400004, 11.472354207000022], [124.57299756800013, 11.472242290000052], [124.5725582880001, 11.472681005000027], [124.57179759600001, 11.472348211000053]]]}}, {"type": "Feature", "properties": {"pgc_prefix": "807802", "municipality": "Biliran", "barangay_count": 11}, "geometry": {"type": "Polygon", "coordinates": [[[124.4821721630001, 11.464001231000054], [124.4820356370001, 11.463706416000036], [124.481480282, 11.463790326000037], [124.48141382000006, 11.46306372500004], [124.48089317200004, 11.463530895000076], [124.48096721900005, 11.463163508000035], [124.48033933000012, 11.462739701000032], [124.47946854400004, 11.462930835000066], [124.47847844100012, 11.463807620000066], [124.47780629900002, 11.465583871000037], [124.47666190700009, 11.466112241000076], [124.47627901000011, 11.465708909000055], [124.47632273600006, 11.466024401000023], [124.47605247800004, 11.465817974000059], [124.4761578040001, 11.466094514000075], [124.47539220200007, 11.466164644000058], [124.47516110900007, 11.465488468000045], [124.473562, 11.465460513000039], [124.47329512400005, 11.46331153200003], [124.47417741000004, 11.463362150000023], [124.47480534400005, 11.463350452000043], [124.47329313500005, 11.463278425000054], [124.47297092200006, 11.461450307000064], [124.47352703200012, 11.465565007000064], [124.47263756600013, 11.465778704000057], [124.47233858500012, 11.466331069000036], [124.47174459700011, 11.466045384000042], [124.46969466700011, 11.466009213000063], [124.4687941100001, 11.466359856000054], [124.46855529200002, 11.466150284000038], [124.46667218200002, 11.466979901000059], [124.4661162870001, 11.466807202000041], [124.4651286420001, 11.46708858900007], [124.46444750400008, 11.466778112000041], [124.46393794700009, 11.467446129000052], [124.46284912800002, 11.46727609000004], [124.46231253600003, 11.467796150000023], [124.4623005090001, 11.468604193000033], [124.46276520800006, 11.468732757000055], [124.46124278900004, 11.470420596000052], [124.46224723600005, 11.471244260000047], [124.46227906500008, 11.47353442000002], [124.46283899800007, 11.476017908000074], [124.4622479410001, 11.476412408000044], [124.46005145700008, 11.475621094000074], [124.4590006530001, 11.475641108000048], [124.4579263370001, 11.476024038000048], [124.45709597100007, 11.476882596000051], [124.45596799000009, 11.477398805000066], [124.45207043600008, 11.47799669500006], [124.4512038260001, 11.478876717000048], [124.45038063100003, 11.48094767100002], [124.44760987900008, 11.482679491000054], [124.44761617300001, 11.483062341000052], [124.44585041800006, 11.483844917000056], [124.44476217400008, 11.483022249000044], [124.4460462180001, 11.484456658000058], [124.44617605400003, 11.484884454000055], [124.44582292500002, 11.484788922000062], [124.44587275700009, 11.484994857000062], [124.44646203000003, 11.485385489000063], [124.44558462500005, 11.485192304000064], [124.4458077720001, 11.485546849000055], [124.44505412500008, 11.486275302000024], [124.44454934400007, 11.486330508000037], [124.44425471200009, 11.486808196000025], [124.44402842400007, 11.486699922000069], [124.44248471800006, 11.48780484200006], [124.441748748, 11.488551307000023], [124.441813742, 11.488820933000056], [124.44167508900011, 11.488417556000055], [124.44163609400005, 11.48879333500002], [124.44121580200012, 11.488835794000067], [124.44145146800008, 11.489084244000024], [124.44100516900005, 11.48947241800005], [124.44111547200009, 11.490383287000041], [124.44063974200003, 11.491713732000047], [124.44082947800008, 11.492039559000032], [124.4412122870001, 11.491786920000036], [124.44168974700007, 11.492141980000042], [124.44154716900005, 11.492908543000057], [124.44205376600007, 11.493729401000053], [124.44278375000012, 11.493509295000022], [124.4427525010001, 11.49389017200002], [124.44305523700007, 11.493834667000048], [124.44316266000011, 11.494225112000038], [124.44354547100012, 11.494146638000075], [124.44383285100002, 11.494321203000025], [124.44367182100007, 11.494596400000034], [124.44409404400005, 11.494671447000027], [124.44418872400001, 11.496030741000027], [124.44364573400004, 11.496889783000027], [124.444207397, 11.497070671000076], [124.443618248, 11.497442095000052], [124.44350036600008, 11.496929314000056], [124.44301205100008, 11.49692932000005], [124.44310497100001, 11.497128863000055], [124.44246210000006, 11.497404516000074], [124.44194808200008, 11.49719141500003], [124.44189668400007, 11.49772030300005], [124.44160322800008, 11.497159345000059], [124.44077830300012, 11.497244571000067], [124.44040121600004, 11.498491176000073], [124.439802084, 11.499052936000055], [124.43991043800008, 11.49933411000006], [124.43946653200011, 11.499191250000024], [124.43579205900005, 11.501482242000066], [124.43446342100003, 11.502769842000077], [124.4334847680001, 11.502473010000076], [124.43291651100003, 11.502750385000072], [124.43264397000009, 11.502479306000057], [124.43273003800005, 11.502955202000068], [124.43218654700003, 11.503426019000074], [124.43254737100007, 11.503903329000023], [124.43239163700002, 11.504473604000056], [124.43144257100005, 11.504539335000057], [124.43173765300003, 11.504762222000066], [124.43073652200007, 11.50630615600005], [124.42921563200002, 11.506575482000073], [124.4284872820001, 11.507652398000062], [124.42910639200011, 11.509193041000056], [124.42839783300009, 11.509483183000041], [124.42847624900003, 11.50977232900004], [124.42826783400005, 11.509695495000074], [124.42792230400006, 11.510387525000056], [124.4267254670001, 11.510169157000064], [124.4273156370001, 11.511145783000075], [124.4267993190001, 11.512569302000031], [124.4352673620001, 11.517575966000038], [124.45511985700011, 11.518472296000025], [124.45959529100004, 11.524174170000038], [124.46691807300012, 11.529688347000048], [124.48150059000011, 11.544883845000072], [124.48246499500011, 11.544493112000055], [124.48381555600008, 11.544829013000026], [124.4845863810001, 11.545784793000053], [124.48526059900007, 11.54607912400007], [124.48742120500003, 11.545675989000072], [124.48823867600005, 11.546197752000072], [124.48948958300004, 11.54536140300007], [124.49075650500002, 11.545863308000033], [124.49239671000011, 11.545403002000056], [124.49423895500001, 11.545595895000076], [124.49578148000013, 11.544833293000066], [124.51966950300005, 11.541355589000032], [124.51976883500004, 11.50880224700006], [124.52053007600011, 11.499541332000035], [124.51984024100011, 11.496725716000071], [124.5191952790001, 11.496153255000026], [124.51961204500002, 11.495077098000024], [124.51901787700001, 11.494863223000038], [124.5189315130001, 11.494539286000075], [124.51952634400004, 11.493542687000058], [124.52064426500009, 11.49264872900005], [124.52087516300003, 11.491179864000058], [124.52235446600002, 11.489090257000042], [124.52098865900007, 11.487899867000063], [124.52094355700001, 11.486879163000028], [124.51988364200008, 11.486242751000075], [124.51971290800009, 11.485507292000024], [124.52007945200012, 11.484462226000058], [124.51922783100007, 11.483837199000048], [124.51984030000007, 11.483279121000066], [124.5196116300001, 11.482477222000057], [124.52004622900006, 11.481422401000033], [124.51901937000004, 11.480934817000048], [124.51919074700005, 11.479748465000057], [124.51771705200008, 11.477014682000059], [124.51752033700008, 11.475584351000068], [124.51684584500003, 11.475299972000071], [124.51689469600002, 11.474678946000038], [124.51611958300009, 11.474281157000064], [124.51569304000009, 11.474595442000064], [124.51458363000006, 11.47424863100002], [124.51478618700004, 11.47404445700005], [124.51304151500005, 11.471993885000073], [124.51258168000004, 11.469930815000055], [124.5111322880001, 11.469392571000068], [124.50974880700007, 11.470607169000061], [124.50970879900002, 11.47130525800003], [124.5093635500001, 11.471495174000035], [124.50933459900013, 11.473023941000067], [124.50895370700005, 11.473139638000077], [124.50861434900003, 11.47438554200005], [124.50811025500003, 11.47480169700003], [124.50883685400004, 11.479311267000073], [124.50740923700005, 11.479481170000042], [124.50716921300011, 11.479911309000045], [124.50619076600005, 11.479344532000026], [124.50589359100002, 11.479832918000058], [124.50570621400004, 11.479411746000038], [124.504487765, 11.479602185000031], [124.5040648490001, 11.479313191000072], [124.5036216220001, 11.479976055000062], [124.50218234400006, 11.480764789000032], [124.50196416300004, 11.480548837000073], [124.50281439800006, 11.479979225000022], [124.50257578100003, 11.479810107000047], [124.50332989600008, 11.479536377000043], [124.50361751100002, 11.479077041000037], [124.50331497900004, 11.478893311000038], [124.50311097800011, 11.479331892000063], [124.5024398710001, 11.479496837000056], [124.5024846120001, 11.47979122700002], [124.50210464600003, 11.47975915100005], [124.50170837200004, 11.480253979000054], [124.50131470500004, 11.480154513000059], [124.50191576200007, 11.47915537800003], [124.5012746210001, 11.47927797200003], [124.5012227530001, 11.479015701000037], [124.50215802400011, 11.477978135000056], [124.5026210220001, 11.476884379000069], [124.50165363900008, 11.474352807000058], [124.50161276000006, 11.473863146000044], [124.50229496100008, 11.473329561000071], [124.50174682700005, 11.472246274000044], [124.50053511700003, 11.471978433000059], [124.49964221200003, 11.472345319000055], [124.4989958650001, 11.471268638000023], [124.49742198500007, 11.470299672000063], [124.49570763000008, 11.470668371000047], [124.49421119500003, 11.469977045000064], [124.49251155400007, 11.469806907000077], [124.49266189300012, 11.469491468000056], [124.49200453800006, 11.46948468800002], [124.49215275200005, 11.468625535000058], [124.4899925090001, 11.469572952000021], [124.49031860600007, 11.469222233000039], [124.49002638600007, 11.469269967000058], [124.48980022800004, 11.468793070000057], [124.49112794200003, 11.467737882000051], [124.49042055200005, 11.467298721000075], [124.49079663900011, 11.466824517000074], [124.48965297400002, 11.467210355000077], [124.48963238400006, 11.466647181000042], [124.4889967690001, 11.466623475000059], [124.48892177200004, 11.465523241000026], [124.4901227690001, 11.464762113000061], [124.48910489900005, 11.46457679200006], [124.48887619800006, 11.463983682000048], [124.48783084400009, 11.464193395000054], [124.48863051800004, 11.463627712000058], [124.48857033500008, 11.46332464300002], [124.48696871800009, 11.46291366200006], [124.48629203100006, 11.463725940000073], [124.48612781200006, 11.464454778000059], [124.48577481300003, 11.463846833000044], [124.48495386800005, 11.46419922100006], [124.483946273, 11.463624830000072], [124.483763382, 11.463846851000026], [124.48238559600009, 11.463662139000064], [124.4821721630001, 11.464001231000054]]]}}, {"type": "Feature", "properties": {"pgc_prefix": "807808", "municipality": "Naval", "barangay_count": 24}, "geometry": {"type": "Polygon", "coordinates": [[[124.4352673620001, 11.517575966000038], [124.42638928500003, 11.51223944700007], [124.42567887900007, 11.513212342000033], [124.42550362200006, 11.512997633000055], [124.42486567600008, 11.513211184000058], [124.42495009900006, 11.513405585000044], [124.42488467200008, 11.513614463000069], [124.42480447000004, 11.513397314000029], [124.42429470300009, 11.513950667000074], [124.42451569600009, 11.51417133800004], [124.42418504900002, 11.51491833700004], [124.42339381200009, 11.515296152000076], [124.423410095, 11.516147248000037], [124.4227993180001, 11.517264760000046], [124.42286601200011, 11.518058990000041], [124.42241315900002, 11.518068807000077], [124.42287790800005, 11.518662526000071], [124.42253526200012, 11.519049321000066], [124.42295376300002, 11.51940184800003], [124.42251606600007, 11.519620950000046], [124.42238709700007, 11.520444112000064], [124.42189812600009, 11.520819715000073], [124.42229272200007, 11.521230154000024], [124.4219145100001, 11.521858058000019], [124.42236670700004, 11.524174862000054], [124.42210441800012, 11.52581269700005], [124.42162445000007, 11.526731746000051], [124.42103362600007, 11.52703848100003], [124.42037493400005, 11.529041596000067], [124.419310977, 11.53072541300003], [124.41872429000011, 11.531091050000045], [124.41855796200002, 11.53217270700003], [124.41821772300013, 11.532280478000075], [124.41845574100013, 11.532839381000032], [124.41812520300006, 11.533790311000075], [124.41774526400002, 11.533713012000023], [124.4183780090001, 11.534498695000023], [124.41811573800011, 11.53520792800003], [124.41475113700005, 11.537717244000023], [124.41195533800011, 11.538178119000067], [124.41021851300003, 11.538074124000048], [124.40946979000013, 11.537424230000056], [124.40921814300009, 11.537709619000056], [124.40853968300007, 11.537343270000065], [124.40712223800006, 11.535725811000075], [124.4063724350001, 11.535708734000023], [124.40589576700008, 11.536638649000052], [124.40587497700005, 11.537479571000064], [124.40522389000013, 11.538491702000043], [124.40532715200005, 11.539455441000031], [124.40490659600005, 11.53949093500006], [124.40484940600003, 11.541026966000059], [124.40445983000006, 11.541328794000037], [124.40346645200009, 11.54132102400007], [124.40167565600007, 11.543493724000026], [124.40090467700009, 11.546981655000023], [124.39911991200006, 11.549294231000031], [124.39908693600012, 11.549949310000045], [124.39878458500006, 11.549939305000066], [124.39855210400003, 11.55078900500007], [124.39831308400005, 11.550742970000044], [124.39628728100001, 11.556608649000054], [124.39496133500006, 11.557957593000026], [124.39471326100012, 11.557982348000053], [124.39489127600007, 11.55771342500003], [124.39437429400006, 11.557877822000021], [124.3947555940001, 11.558129868000037], [124.39440355600004, 11.558831180000029], [124.39381096900003, 11.558838661000038], [124.39388482400011, 11.558527711000066], [124.39313741900003, 11.558705680000061], [124.39208600900008, 11.559298321000028], [124.39182856100003, 11.559836528000062], [124.39100814500013, 11.559498199000075], [124.39081183100006, 11.55998906700006], [124.3889108180001, 11.559314354000035], [124.39114701100004, 11.56022482000003], [124.39173289700011, 11.563978585000026], [124.39180170400004, 11.566851561000023], [124.3911067360001, 11.567469720000075], [124.39110289700011, 11.568143087000067], [124.39013982400003, 11.569798343000059], [124.39098213200008, 11.573447816000051], [124.39092440200011, 11.574765670000032], [124.39054283800012, 11.575609066000027], [124.38939473000003, 11.57546625500004], [124.390747099, 11.575873176000075], [124.39074707500005, 11.576729854000062], [124.3901303250001, 11.577030684000023], [124.390343109, 11.58027605800004], [124.39075701200012, 11.58024080300004], [124.39155230000007, 11.583711962000054], [124.39333923600007, 11.586575247000042], [124.39447853000001, 11.587666461000028], [124.394746746, 11.587605018000032], [124.39584423900011, 11.58925883200004], [124.39602817800007, 11.59073125900005], [124.39556227000004, 11.592424455000069], [124.39584578200004, 11.593117728000037], [124.39517263300002, 11.593125146000032], [124.39538297800004, 11.594134378000037], [124.39506165800003, 11.594988991000037], [124.395096996, 11.596103591000029], [124.39563474400006, 11.596497862000035], [124.39781215000005, 11.597031752000019], [124.399122711, 11.59670818100005], [124.40050407400008, 11.597160949000056], [124.40237334600012, 11.597292386000047], [124.40718972100002, 11.600941342000056], [124.41714915000011, 11.605581328000028], [124.42812348200003, 11.608967549000058], [124.43284522400005, 11.61439402800005], [124.43459949700002, 11.61567379300004], [124.45407678000005, 11.622236156000044], [124.47165377500005, 11.609967913000045], [124.49131364700008, 11.595700365000026], [124.5052678830001, 11.586171239000068], [124.48150059000011, 11.544883845000072], [124.46691807300012, 11.529688347000048], [124.45959529100004, 11.524174170000038], [124.45511985700011, 11.518472296000025], [124.4352673620001, 11.517575966000038]]]}}, {"type": "Feature", "properties": {"pgc_prefix": "807804", "municipality": "Caibiran", "barangay_count": 17}, "geometry": {"type": "Polygon", "coordinates": [[[124.51966950300005, 11.541355589000032], [124.49578148000013, 11.544833293000066], [124.49423895500001, 11.545595895000076], [124.49239671000011, 11.545403002000056], [124.49075650500002, 11.545863308000033], [124.48948958300004, 11.54536140300007], [124.48823867600005, 11.546197752000072], [124.48742120500003, 11.545675989000072], [124.48539666000012, 11.546120602000029], [124.4845863810001, 11.545784793000053], [124.48381555600008, 11.544829013000026], [124.48255819000008, 11.544494352000074], [124.48150059000011, 11.544883845000072], [124.5052678830001, 11.586171239000068], [124.5259825070001, 11.595960685000025], [124.54060652500006, 11.60222180100004], [124.56353121100007, 11.613464619000068], [124.56428863700012, 11.613463824000062], [124.56351497900003, 11.610618816000054], [124.56349165600011, 11.608968424000068], [124.56291015900001, 11.607816207000042], [124.56319946200006, 11.606889499000031], [124.56272700700002, 11.606630413000063], [124.56344099800005, 11.604903608000027], [124.56346270400002, 11.603746591000062], [124.56376684000008, 11.603672752000023], [124.56355369000006, 11.603364645000052], [124.56401639, 11.60336210500003], [124.56435445700004, 11.60261979000006], [124.5667140290001, 11.60041108000007], [124.56708984500005, 11.599310234000026], [124.568647283, 11.597002409000027], [124.56911052900011, 11.596954544000026], [124.57154216300012, 11.595109300000047], [124.57276827700002, 11.594593080000037], [124.57310674000007, 11.59484287500004], [124.57555013400007, 11.594097020000047], [124.57621263800003, 11.593310901000052], [124.57727823300002, 11.592889119000063], [124.57739725400006, 11.592342469000073], [124.57607016800013, 11.591035377000026], [124.57781014800001, 11.590560235000053], [124.57721453600004, 11.588735963000032], [124.577467264, 11.586846728000069], [124.57817870500003, 11.585146398000063], [124.57983627300005, 11.582860841000068], [124.57992755200007, 11.582465453000054], [124.57954057300003, 11.582047336000072], [124.58019431800007, 11.58157202700005], [124.58073867200007, 11.57902245200006], [124.58204905300009, 11.576719924000031], [124.58185431100001, 11.575252103000023], [124.58254942300005, 11.573552543000062], [124.58232198000007, 11.569403241000028], [124.583190091, 11.567137127000024], [124.5834200380001, 11.567232595000064], [124.58394260200009, 11.566528455000027], [124.58488980400011, 11.566081060000045], [124.58520021900006, 11.565399851000048], [124.58599469700006, 11.565211626000064], [124.5864468320001, 11.564696036000043], [124.58746607400008, 11.564447994000032], [124.5880215740001, 11.565344812000037], [124.58760150400008, 11.564470292000065], [124.5878727820001, 11.564170860000043], [124.58763767500012, 11.56424173100004], [124.58791283200003, 11.564073403000068], [124.58811825100008, 11.56409731800005], [124.59111157400002, 11.561217985000042], [124.59194496200007, 11.560646577000053], [124.59234261300001, 11.560746376000054], [124.59338737300006, 11.559491856000024], [124.59347041200012, 11.559686467000061], [124.59435975900011, 11.559222590000045], [124.59755567700006, 11.558614744000067], [124.59993119000002, 11.556960161000063], [124.59974154600002, 11.55687484400005], [124.60116125600007, 11.556577771000036], [124.60312257500006, 11.555519279000066], [124.60538264000002, 11.55362232400006], [124.60706471700009, 11.551115454000067], [124.6109493020001, 11.548973776000024], [124.61494027900007, 11.545957549000036], [124.6163336840001, 11.544455354000036], [124.61709334600005, 11.542847138000072], [124.61747060400012, 11.540590824000047], [124.61686208100002, 11.539465499000073], [124.61684240800001, 11.538244522000074], [124.617658107, 11.536478468000038], [124.6191408840001, 11.53520509300006], [124.61965187500003, 11.53350600500005], [124.61912618000007, 11.531367907000057], [124.61662278400003, 11.528218345000026], [124.6162231820001, 11.52706585100003], [124.61634170800004, 11.52606809500003], [124.61563456600004, 11.525610902000038], [124.6012241740001, 11.52387126000002], [124.5978297700001, 11.52372270300003], [124.58199143100002, 11.526379588000053], [124.56030352800008, 11.531221439000031], [124.54301165500011, 11.535922800000035], [124.51966950300005, 11.541355589000032]]]}}, {"type": "Feature", "properties": {"pgc_prefix": "807801", "municipality": "Almeria", "barangay_count": 13}, "geometry": {"type": "MultiPolygon", "coordinates": [[[[124.38064123500011, 11.610708173000035], [124.38001510800007, 11.610973485000045], [124.37920820100011, 11.611915032000072], [124.3792746580001, 11.612387930000066], [124.379059653, 11.612341980000052], [124.37859791000005, 11.615036408000037], [124.37864498800003, 11.617553112000051], [124.37872419600002, 11.618166594000057], [124.37950785700004, 11.619098379000034], [124.37874220600008, 11.618637608000029], [124.37851703800003, 11.619668419000048], [124.37794784600008, 11.619728117000022], [124.37844778300006, 11.619770533000063], [124.37856522100003, 11.621253518000056], [124.37910877600007, 11.62264711300003], [124.37831083400009, 11.62481720100004], [124.37842951200004, 11.625523102000045], [124.37787629800006, 11.626494467000041], [124.37738593500002, 11.626519429000043], [124.3772230960001, 11.627615467000053], [124.37656806500001, 11.628006343000038], [124.37591315700001, 11.62775550300006], [124.3752027290001, 11.628813034000077], [124.37410826100006, 11.629241553000043], [124.37375078800005, 11.630013115000054], [124.37337695000006, 11.630087713000021], [124.3730839840001, 11.631630116000055], [124.3724921820001, 11.632604360000075], [124.37100910800008, 11.633307553000064], [124.36955813800013, 11.634771947000047], [124.36915743400004, 11.634975049000047], [124.36886881200006, 11.634774699000046], [124.36824114000002, 11.63531538200004], [124.36806740600004, 11.635065628000062], [124.36708524500011, 11.635284040000045], [124.365756497, 11.636753201000033], [124.36423301900004, 11.63718871800006], [124.36232469900004, 11.636054971000021], [124.36165499200001, 11.636278466000023], [124.3617008860001, 11.637254160000056], [124.36086641600002, 11.639437596000048], [124.36043633600002, 11.639468400000055], [124.36026233200006, 11.639139871000056], [124.36014703, 11.639527946000044], [124.35973403700007, 11.639628560000062], [124.35905902600007, 11.63941501800002], [124.35896450100006, 11.639882209000064], [124.35956286600003, 11.640448422000079], [124.35943107300011, 11.641139381000071], [124.3586790180001, 11.641559053000039], [124.35777238000001, 11.642956327000036], [124.35676708000005, 11.643244085000045], [124.35635624500003, 11.643780349000048], [124.35617025100011, 11.644275288000072], [124.35671805400011, 11.644722142000035], [124.35651488700012, 11.645426504000053], [124.35858758600011, 11.647338249000029], [124.36047531100007, 11.648092536000034], [124.36090716000001, 11.649022778000075], [124.36125722500003, 11.649157315000025], [124.36110188100008, 11.650398625000035], [124.36169897100001, 11.653222339000024], [124.36138288500003, 11.654110534000038], [124.36091720600007, 11.654433039000024], [124.36254255700011, 11.654935077000063], [124.36328136700003, 11.656035], [124.36526852100009, 11.65714074300007], [124.38191675200007, 11.66272409100003], [124.38754526500009, 11.664999350000075], [124.40932480800006, 11.670163202000024], [124.42101595500003, 11.66605485200006], [124.44113316500012, 11.640634013000065], [124.45407678000005, 11.622236156000044], [124.43459949700002, 11.61567379300004], [124.43284522400005, 11.61439402800005], [124.42812348200003, 11.608967549000058], [124.41714915000011, 11.605581328000028], [124.40718972100002, 11.600941342000056], [124.40229974500005, 11.597263131000032], [124.40050407400008, 11.597160949000056], [124.399122711, 11.59670818100005], [124.39781215000005, 11.597031752000019], [124.3957029940001, 11.596530493000044], [124.39503884300007, 11.596058749000067], [124.39461053600009, 11.596174017000063], [124.39273116800005, 11.599781703000074], [124.39211957800002, 11.599647058000071], [124.39125081800012, 11.600131263000039], [124.38966639000013, 11.60166677500007], [124.38841887500008, 11.601227291000043], [124.38693829300009, 11.601773267000054], [124.385582299, 11.604151385000021], [124.38449002500012, 11.604897626000021], [124.382332302, 11.60567731300006], [124.38138975800007, 11.605696159000045], [124.3816352120001, 11.605538494000028], [124.38116915100011, 11.605390687000064], [124.3805293590001, 11.605698132000041], [124.37994784500006, 11.606458291000022], [124.37943523100013, 11.609086465000075], [124.37955788900003, 11.60945514200006], [124.38076784500005, 11.609846564000065], [124.38064123500011, 11.610708173000035]]], [[[124.36131923000005, 11.619281925000054], [124.36477760600008, 11.619081102000052], [124.36478285200008, 11.61885498400005], [124.36491664000005, 11.619042558000045], [124.36495877800007, 11.61877714800005], [124.36524996400011, 11.61899812300004], [124.36510391500009, 11.618656889000022], [124.36580338100009, 11.618807532000062], [124.36643596700004, 11.61833894600005], [124.36480956400011, 11.617792567000038], [124.36432940000009, 11.61828440100004], [124.3632640730001, 11.61852656000002], [124.36121683200008, 11.61781296000004], [124.36043633200006, 11.618922029000032], [124.36131923000005, 11.619281925000054]]], [[[124.34204133200002, 11.630635016000042], [124.34354195200002, 11.630886614000072], [124.3437995070001, 11.630230469000024], [124.34458934000008, 11.629724637000036], [124.34433116900004, 11.628806034000034], [124.34466610100004, 11.628073261000052], [124.34430126600013, 11.627536470000049], [124.34388097900012, 11.627768574000074], [124.34389092700007, 11.628477716000075], [124.34292757500009, 11.629014254000024], [124.34155931400007, 11.62899819300003], [124.3422819340001, 11.629321799000024], [124.34244837900007, 11.629742005000024], [124.34249964700007, 11.630193511000073], [124.34205384700012, 11.630252106000057], [124.34235783100007, 11.630672824000042], [124.34213975600005, 11.630512150000074], [124.34204133200002, 11.630635016000042]]]]}}, {"type": "Feature", "properties": {"pgc_prefix": "807805", "municipality": "Culaba", "barangay_count": 17}, "geometry": {"type": "Polygon", "coordinates": [[[124.5432609610001, 11.654122859000038], [124.54664164000008, 11.651449081000067], [124.54823143300007, 11.651164996000032], [124.54850010000006, 11.64969752500002], [124.55131947200005, 11.646405218000037], [124.55118310800005, 11.645343902000036], [124.55174180300004, 11.644115099000032], [124.55474133300004, 11.640929051000056], [124.55533702900004, 11.639470443000048], [124.55684230200008, 11.637600637000048], [124.55756398600012, 11.635210182000039], [124.5592006930001, 11.631761060000029], [124.56063696200009, 11.629745211000056], [124.5608597700001, 11.628347681000037], [124.56271483500007, 11.626336327000047], [124.56351192100009, 11.622704898000052], [124.56442987700007, 11.620846597000023], [124.56547022000008, 11.619852669000068], [124.56543380200004, 11.618858624000039], [124.56609076000008, 11.617303687000058], [124.56544247400008, 11.614740885000058], [124.56437846300003, 11.613275403000046], [124.56353121100007, 11.613464619000068], [124.54060652500006, 11.60222180100004], [124.5259825070001, 11.595960685000025], [124.5052678830001, 11.586171239000068], [124.49131364700008, 11.595700365000026], [124.47165377500005, 11.609967913000045], [124.45407678000005, 11.622236156000044], [124.4901463440001, 11.692952032000049], [124.49131172500007, 11.692738521000022], [124.49210977700011, 11.691623766000076], [124.49290367400012, 11.691554119000045], [124.49341752500003, 11.690952230000049], [124.49457452200011, 11.690934374000049], [124.4955589110001, 11.691919583000072], [124.49552645300002, 11.69100817900005], [124.49585250000007, 11.690677331000076], [124.49903967300008, 11.690219312000067], [124.50220418700007, 11.688419303000044], [124.50314558800004, 11.687161852000031], [124.50462915100002, 11.686467849000051], [124.50477660000001, 11.685709690000067], [124.50661757800003, 11.685342182000058], [124.50717084300004, 11.684513501000025], [124.50776489800013, 11.685231177000048], [124.50834965900005, 11.685352024000052], [124.50814009700004, 11.684455885000032], [124.50909830900004, 11.68400021800005], [124.50969753600009, 11.683164079000052], [124.5104724140001, 11.682742035000047], [124.5107633030001, 11.682068986000047], [124.51062463800007, 11.68151984300005], [124.51164056800008, 11.680721171000071], [124.51311200100007, 11.680478287000026], [124.51646192200008, 11.680597820000061], [124.51857741900005, 11.680921591000072], [124.51979063200008, 11.681604611000067], [124.52032541500013, 11.681602622000073], [124.52042505300007, 11.681299950000039], [124.52074582000012, 11.681598706000045], [124.52341068800001, 11.68051621300003], [124.52815147900004, 11.679653495000025], [124.5309709170001, 11.677661647000035], [124.53559418300006, 11.676206940000043], [124.53699260200005, 11.674764681000056], [124.53750013500007, 11.673394883000071], [124.5372303370001, 11.670943403000022], [124.53761483500013, 11.670645382000032], [124.53784337000002, 11.669403893000037], [124.53749999400007, 11.669291130000033], [124.53735606900011, 11.670636875000072], [124.53643632400006, 11.670498798000041], [124.53651746600008, 11.668275897000058], [124.5362771560001, 11.668108363000043], [124.53699633200006, 11.667564844000024], [124.537407668, 11.665896216000021], [124.53784174500005, 11.665688024000078], [124.53861088900011, 11.666038490000062], [124.53833756300004, 11.665650816000037], [124.53851368200004, 11.66488976000005], [124.53804000600007, 11.664834175000067], [124.53800071600006, 11.664537027000053], [124.53881802800005, 11.66357494300007], [124.53866746800009, 11.662822507000042], [124.53928614200005, 11.661963007000052], [124.53937109800006, 11.660209578000035], [124.5398790500001, 11.65919533700003], [124.54068287400003, 11.659144057000049], [124.5412116760001, 11.658237941000039], [124.54188300500005, 11.658585796000066], [124.54122194400009, 11.658071057000027], [124.54159223900001, 11.656103378000063], [124.54207021000002, 11.655994685000053], [124.5432609610001, 11.654122859000038]]]}}, {"type": "Feature", "properties": {"pgc_prefix": "807806", "municipality": "Kawayan", "barangay_count": 20}, "geometry": {"type": "MultiPolygon", "coordinates": [[[[124.36526852100008, 11.65714074300007], [124.36315309500003, 11.655917626000075], [124.3625425570001, 11.654935077000061], [124.36094191100005, 11.654464104000056], [124.36148811500004, 11.655388457000072], [124.36108465200005, 11.65588692600005], [124.36107387300001, 11.65710126700003], [124.3606751320001, 11.657130026000061], [124.36068246600007, 11.657649536000065], [124.35962106600005, 11.659215200000062], [124.35748602400008, 11.660960330000023], [124.35685313200008, 11.662738527000045], [124.35498066700006, 11.66465245300003], [124.35017306700001, 11.665136165000035], [124.34848497300004, 11.664868445000025], [124.3474863780001, 11.665401943000063], [124.34654315600005, 11.665034483000056], [124.34637828300004, 11.665494380000041], [124.34531909300006, 11.665746391000027], [124.34526065800003, 11.666097955000055], [124.34424263200003, 11.666160209000054], [124.34439543400003, 11.667309834000037], [124.34340253800008, 11.668149912000047], [124.34153578100006, 11.66845917300003], [124.33965888900002, 11.66813071000007], [124.33917811300012, 11.668348767000055], [124.33916438100005, 11.668869667000024], [124.33846958700008, 11.66914262000006], [124.33796511900005, 11.668760846000055], [124.3370630500001, 11.668783919000077], [124.33680356500008, 11.669606913000052], [124.33624026700011, 11.669679956000039], [124.33532913500005, 11.670579899000074], [124.33570672000008, 11.672119275000057], [124.33462739600009, 11.673251007000033], [124.33507159400006, 11.674167007000051], [124.33466315700002, 11.676145366000071], [124.33433878500011, 11.67627122700003], [124.33523029200012, 11.676195316000076], [124.33654725100007, 11.677310529000067], [124.33770861300002, 11.676635065000028], [124.33778037800005, 11.676021710000043], [124.33857030800004, 11.675938297000073], [124.33933484300007, 11.676306553000074], [124.34005102800006, 11.677802249000024], [124.33948443500003, 11.67861190800005], [124.33918051000012, 11.680002604000038], [124.3402701650001, 11.681593454000051], [124.3406707370001, 11.681549017000066], [124.34087164800007, 11.67990347500006], [124.3418495090001, 11.679400096000052], [124.3440898880001, 11.679889225000068], [124.34494656400011, 11.680710911000062], [124.34541730600006, 11.680393289000051], [124.3462463950001, 11.678424932000041], [124.34591035800008, 11.676805599000033], [124.34707296800002, 11.676271679000024], [124.34773071100005, 11.677845929000057], [124.34869056500008, 11.67844431800006], [124.34920605500008, 11.679576993000069], [124.35251837300007, 11.68214026000004], [124.3540041220001, 11.681876486000021], [124.35505714600004, 11.680305241000042], [124.3553046830001, 11.681618203000028], [124.35600223900008, 11.681817223000053], [124.35648695700002, 11.681423743000039], [124.35806965000006, 11.681827518000034], [124.35856009700001, 11.681427610000071], [124.35918125600006, 11.681632948000072], [124.35940820000008, 11.68423279700005], [124.35929748600006, 11.682186265000041], [124.360096655, 11.682126957000037], [124.35928771600004, 11.682155649000038], [124.35925542900009, 11.681557172000055], [124.36046143500005, 11.681207018000066], [124.36171787600006, 11.68138566400006], [124.36251617300002, 11.682097002000035], [124.36275445800004, 11.683053767000047], [124.3631969700001, 11.682976644000064], [124.36387470000011, 11.683881368000073], [124.36495245300011, 11.684221444000059], [124.36591361400008, 11.685320687000058], [124.36619540900006, 11.685177047000025], [124.3662491980001, 11.685459761000061], [124.36593845700008, 11.685440853000046], [124.3662086600001, 11.685777292000068], [124.36611563700001, 11.686521482000046], [124.36700611200001, 11.687963657000068], [124.3709882600001, 11.69036580200003], [124.37158515300007, 11.690969482000071], [124.37243188700006, 11.692836205000049], [124.37355165300005, 11.692796905000023], [124.37412085900007, 11.693232525000042], [124.3741189530001, 11.693674129000044], [124.3741973540001, 11.693160760000069], [124.37552431900008, 11.692501676000063], [124.37755909300006, 11.692608665000023], [124.37867406300006, 11.693549180000048], [124.37841182900002, 11.693651506000037], [124.37836450500004, 11.693863888000067], [124.37939264200008, 11.692827240000042], [124.37987175400008, 11.693012596000074], [124.3803058100001, 11.692763533000061], [124.38295748900009, 11.694871636000073], [124.38314263400002, 11.695310714000072], [124.38288302800004, 11.69590778600002], [124.38360656300006, 11.695827009000027], [124.38407945000006, 11.696418184000038], [124.3850404430001, 11.695312683000054], [124.38646429500011, 11.695021307000047], [124.38727459600011, 11.695274781000023], [124.38709549700002, 11.695489569000074], [124.38792595000007, 11.695278726000026], [124.38814126700004, 11.695528987000046], [124.39294039000004, 11.69631892800004], [124.39422905800006, 11.697054313000024], [124.39611294000008, 11.697591312000043], [124.39881111900002, 11.699380310000038], [124.40546528900006, 11.700053696000055], [124.40684381300002, 11.701117132000036], [124.40890541100009, 11.701996474000055], [124.4122006560001, 11.704343625000035], [124.41365951900002, 11.70451317100003], [124.41614108400006, 11.705861878000064], [124.41865228200004, 11.706072340000048], [124.4207715120001, 11.706704501000047], [124.42694854600006, 11.707089181000072], [124.42825588200003, 11.706302807000043], [124.4285743480001, 11.705459259000065], [124.42956415700007, 11.705158236000045], [124.43234445900009, 11.702936970000053], [124.43469275300004, 11.701819414000056], [124.43742170400003, 11.701277403000063], [124.44171747100006, 11.702552844000024], [124.44972883300011, 11.703032235000023], [124.4548715300001, 11.704660622000063], [124.45529219500008, 11.70472662000003], [124.45522277600003, 11.704388686000073], [124.45549845700009, 11.704301217000022], [124.4557588880001, 11.704643153000063], [124.45847695400005, 11.70496115700007], [124.46135438400006, 11.705859020000048], [124.46532812300006, 11.705896284000062], [124.46515586100008, 11.705428639000047], [124.46566177500006, 11.705753223000045], [124.46577372000002, 11.705392482000036], [124.4670886880001, 11.705003874000056], [124.47215856800005, 11.702083536000032], [124.47526726900003, 11.69802426900003], [124.47774629900005, 11.696116103000065], [124.48300695300009, 11.694373861000031], [124.48583829600011, 11.693862964000061], [124.48648241300009, 11.694137037000075], [124.48829480400002, 11.69320834000007], [124.4901463440001, 11.69295203200005], [124.45407678000004, 11.622236156000042], [124.44113316500011, 11.640634013000067], [124.42101595500003, 11.666054852000059], [124.40932480800006, 11.670163202000026], [124.38754526500009, 11.664999350000073], [124.38191675200005, 11.66272409100003], [124.36526852100008, 11.65714074300007]]], [[[124.32758367100007, 11.675703333000058], [124.33013565600004, 11.673385907000068], [124.33099742500008, 11.673171280000076], [124.3313606700001, 11.672641466000073], [124.33238137500007, 11.672175371000037], [124.33238006200008, 11.671695047000071], [124.33176644200012, 11.671505901000046], [124.3317750330001, 11.671118900000067], [124.33149153900001, 11.671358672000054], [124.3305652470001, 11.671141269000032], [124.32950406300006, 11.671781921000047], [124.32824356200001, 11.671995819000074], [124.32699792300002, 11.671294096000054], [124.32642161000001, 11.672289637000063], [124.32565075100001, 11.67231705100005], [124.3255586900001, 11.672581355000034], [124.32583695000005, 11.67244408700003], [124.32664114700003, 11.673149119000072], [124.32650136900008, 11.67477963400006], [124.32699582900011, 11.675246293000043], [124.32661089600003, 11.675255487000072], [124.32668546000002, 11.676620178000064], [124.32638300700012, 11.677222935000032], [124.32758367100007, 11.675703333000058]]], [[[124.35949013900006, 11.694407451000075], [124.3604281160001, 11.693723877000025], [124.36096694700007, 11.69380781700005], [124.36115948200006, 11.69421535600003], [124.3628822820001, 11.692296377000048], [124.36280905500007, 11.690785047000077], [124.36188548200005, 11.689487765000024], [124.35999484600006, 11.689768289000028], [124.35821775600004, 11.691165676000026], [124.35794820100011, 11.692145565000033], [124.35901181300005, 11.69241026900005], [124.35874914800002, 11.692478857000026], [124.35907212600011, 11.692568408000056], [124.35919674000002, 11.693139135000024], [124.35890040400011, 11.693937341000037], [124.35949013900006, 11.694407451000075]]], [[[124.34401894100006, 11.69928582500006], [124.34483208000006, 11.698254357000053], [124.34474062600009, 11.69757011400003], [124.34388222200005, 11.69764275700004], [124.34340301500004, 11.698560651000037], [124.34401894100006, 11.69928582500006]]], [[[124.33536778100006, 11.70961576600007], [124.33684964000008, 11.708707464000042], [124.33942522100006, 11.708625236000046], [124.33925091800006, 11.707843599000057], [124.33766865500002, 11.707589710000036], [124.33653672800006, 11.70802320200005], [124.33573187700006, 11.708648770000025], [124.33536778100006, 11.70961576600007]]]]}}]}